STARLINK-35973          
1 66632C 25271R   26091.37131944  .00035558  00000+0  11987-2 0   916
2 66632  53.1588  34.5741 0001309  88.4781 119.8931 15.30168226    15
STARLINK-35948          
1 66633C 25271S   26091.44076389 -.00012047  00000+0 -40602-3 0   913
2 66633  53.1590  34.2166 0001166  82.6323 165.9326 15.30197708    13
STARLINK-35967          
1 66634C 25271T   26091.47618056 -.00007752  00000+0 -26129-3 0   915
2 66634  53.1595  33.9603 0001293  93.3360  36.9741 15.30195069    18
STARLINK-35955          
1 66635C 25271U   26091.38659722  .00029410  00000+0  99149-3 0   916
2 66635  53.1593  34.6278 0001211  88.0995 140.4947 15.30167973    10
STARLINK-35968          
1 66636C 25271V   26091.45465278 -.00011199  00000+0 -37748-3 0   910
2 66636  53.1600  34.3804 0001225  94.6841 114.1102 15.30193926    18
STARLINK-35953          
1 66637C 25271W   26091.42201389  .00012165  00000+0  41007-3 0   914
2 66637  53.1590  34.3586 0001294  89.4385  26.7076 15.30179920    11
STARLINK-35972          
1 66638C 25271X   26091.41923611  .00011447  00000+0  38590-3 0   918
2 66638  53.1608  34.6121 0001364  86.3386 252.3543 15.30177909    16
STARLINK-35908          
1 66639C 25271Y   26091.40326389  .00017152  00000+0  57812-3 0   914
2 66639  53.1590  34.5013 0001220  95.9720 247.7531 15.30181392    11
STARLINK-35921          
1 66640C 25271Z   26091.47131944 -.00010125  00000+0 -34130-3 0   917
2 66640  53.1602  33.8059 0001144 104.0106  86.7554 15.30190983    16
STARLINK-35923          
1 66641C 25271AA  26091.42618056 -.00004214  00000+0 -14202-3 0   917
2 66641  53.1610  34.6676 0001358  88.8018 241.6364 15.30193448    18
STARLINK-35926          
1 66642C 25271AB  26091.46159722 -.00000792  00000+0 -26726-4 0   914
2 66642  53.1603  34.3769 0001073 101.6364 128.0486 15.30157463    13
STARLINK-35918          
1 66643C 25271AC  26091.37062500  .00029098  00000+0  98083-3 0   914
2 66643  53.1588  34.4805 0001336  88.1935 162.8752 15.30172890    16
STARLINK-35938          
1 66644C 25271AD  26091.44701389 -.00011054  00000+0 -37258-3 0   910
2 66644  53.1610  34.5375 0001295  79.5312  23.1775 15.30195130    19
STARLINK-35867          
1 66791C 25278A   26091.45743056  .00010154  00000+0  36739-3 0   919
2 66791  43.0032 346.2092 0001731 274.4888 183.4896 15.27606601    16
STARLINK-35990          
1 66792C 25278B   26091.44354167  .00000446  00000+0  16171-4 0   912
2 66792  43.0021 345.6304 0001607 274.1605  16.1963 15.27579913    12
STARLINK-36051          
1 66793C 25278C   26091.44493056  .00003719  00000+0  13477-3 0   915
2 66793  43.0037 345.9814 0000974 261.6860 247.8051 15.27564150    17
STARLINK-36062          
1 66794C 25278D   26091.46506944  .00008379  00000+0  30335-3 0   918
2 66794  43.0038 345.9568 0001644 269.0845 315.8441 15.27587684    11
STARLINK-36047          
1 66795C 25278E   26091.36229167  .00001429  00000+0  51746-4 0   916
2 66795  43.0035 346.4366 0001631 259.3762 162.1423 15.27581269    13
STARLINK-35964          
1 66796C 25278F   26091.42062500  .00004850  00000+0  17563-3 0   919
2 66796  43.0023 331.0947 0001575 269.1766  96.9050 15.27583905    15
STARLINK-36099          
1 66797C 25278G   26091.42895833  .00000988  00000+0  35804-4 0   910
2 66797  43.0030 345.9544 0001789 262.0591 209.0054 15.27564920    13
STARLINK-36041          
1 66798C 25278H   26091.39562500 -.00006587  00000+0 -23852-3 0   911
2 66798  43.0037 346.3794 0001672 279.1625 269.2733 15.27591353    13
STARLINK-36044          
1 66799C 25278J   26091.46159722  .00013082  00000+0  47343-3 0   915
2 66799  43.0019 345.4895 0001717 257.4080 146.5316 15.27598984    11
STARLINK-35996          
1 66800C 25278K   26091.38104167 -.00003547  00000+0 -12844-3 0   917
2 66800  43.0020 345.8781 0001642 270.1132  78.5778 15.27584261    10
STARLINK-36080          
1 66801C 25278L   26091.41993056 -.00007156  00000+0 -25913-3 0   916
2 66801  43.0030 346.3982 0001606 280.1002 338.4851 15.27590721    16
STARLINK-35604          
1 66802C 25278M   26091.44909722  .00004369  00000+0  15821-3 0   915
2 66802  43.0038 346.0058 0001771 256.0788 255.0757 15.27580545    14
STARLINK-35565          
1 66803C 25278N   26091.37965278 -.00001433  00000+0 -51913-4 0   910
2 66803  43.0038 346.4906 0001596 262.1414 191.3133 15.27569408    15
STARLINK-36038          
1 66804C 25278P   26091.44979167  .00003205  00000+0  11604-3 0   910
2 66804  43.0030 345.6504 0001645 265.8723  37.6632 15.27588749    16
STARLINK-36049          
1 66805C 25278Q   26091.46298611 -.00192340  00000+0 -69622-2 0   914
2 66805  43.0037 346.0521 0001697 268.7870 269.3672 15.27693463    18
STARLINK-36069          
1 66806C 25278R   26091.47131944  .00011133  00000+0  40320-3 0   914
2 66806  43.0037 346.0551 0001762 271.5537 291.1972 15.27576416    11
STARLINK-36000          
1 66807C 25278S   26091.42201389  .00001302  00000+0  47184-4 0   914
2 66807  43.0033 345.8561 0001520 280.9719 208.4870 15.27557416    11
STARLINK-36071          
1 66808C 25278T   26091.45604167  .00009973  00000+0  36111-3 0   918
2 66808  43.0028 345.3743 0001790 266.9111 170.0916 15.27584061    13
STARLINK-35979          
1 66809C 25278U   26091.38868056 -.00000801  00000+0 -28967-4 0   914
2 66809  43.0036 346.5346 0002349 266.7202 193.9778 15.27614424    12
STARLINK-36046          
1 66810C 25278V   26091.47618056  .00033526  00000+0  12124-2 0   913
2 66810  43.0036 345.8374 0001462 273.0528  34.2776 15.27613247    11
STARLINK-36045          
1 66811C 25278W   26091.41090278 -.00005354  00000+0 -19390-3 0   911
2 66811  43.0033 346.1034 0001271 266.0522  84.3334 15.27587085    16
STARLINK-36054          
1 66812C 25278X   26091.47618056  .00016545  00000+0  59907-3 0   918
2 66812  43.0031 345.6986 0002413 270.0717  93.8738 15.27577695    14
STARLINK-36042          
1 66813C 25278Y   26091.46993056  .00016394  00000+0  59372-3 0   912
2 66813  43.0024 345.3879 0001720 277.2959 193.7317 15.27573491    15
STARLINK-35984          
1 66814C 25278Z   26091.46298611  .00012587  00000+0  45574-3 0   917
2 66814  43.0016 345.4632 0001180 255.7282 162.9086 15.27583641    14
STARLINK-35985          
1 66815C 25278AA  26091.44076389  .00001000  00000+0  36217-4 0   915
2 66815  43.0028 345.8440 0001656 269.5263 280.6513 15.27589644    11
STARLINK-36098          
1 66816C 25278AB  26091.44076389  .00001859  00000+0  67328-4 0   915
2 66816  43.0024 345.4706 0001552 269.2206  76.5863 15.27585869    13
STARLINK-35995          
1 66817C 25278AC  26091.45951389  .00007416  00000+0  26852-3 0   910
2 66817  43.0030 345.6909 0001661 262.4745  52.1446 15.27584395    12
STARLINK-35994          
1 66818C 25278AD  26091.42131944  .00000841  00000+0  30463-4 0   914
2 66818  43.0030 345.9443 0001549 271.4604 178.7247 15.27589442    10
STARLINK-35989          
1 66819C 25278AE  26091.41784722 -.00002256  00000+0 -81700-4 0   916
2 66819  43.0033 346.0761 0001487 274.4626 107.0784 15.27587786    17
STARLINK-35966          
1 66821C 25280A   26091.42687500  .00058915  00000+0  49370-2 0   915
2 66821  70.0007 277.3130 0002819 266.3194 214.5262 14.98303822    16
STARLINK-35958          
1 66822C 25280B   26091.47479167  .00031679  00000+0  26546-2 0   917
2 66822  70.0000 276.9909 0002471 263.8814 295.4276 14.98320017    12
STARLINK-35957          
1 66823C 25280C   26091.36784722  .00068433  00000+0  57353-2 0   910
2 66823  70.0002 277.1594 0002800 267.2455 165.4179 14.98294417    15
STARLINK-35896          
1 66824C 25280D   26091.45256944  .00050123  00000+0  42000-2 0   911
2 66824  70.0001 277.1494 0002485 264.0839  85.3494 14.98310955    10
STARLINK-35476          
1 66825C 25280E   26091.41368056  .00066414  00000+0  55654-2 0   915
2 66825  70.0003 277.2962 0003202 266.8571 187.8571 14.98299363    18
STARLINK-35898          
1 66826C 25280F   26091.43312500  .00055835  00000+0  46787-2 0   913
2 66826  70.0004 276.9440 0002778 266.1790 203.4983 14.98307059    14
STARLINK-35959          
1 66827C 25280G   26091.40951389  .00061437  00000+0  51490-2 0   917
2 66827  70.0000 277.2044 0002475 264.3485 257.9410 14.98298742    17
STARLINK-35982          
1 66828C 25280H   26091.36159722  .00067548  00000+0  56608-2 0   919
2 66828  70.0002 277.4007 0002621 264.0482 292.3100 14.98298039    16
STARLINK-36084          
1 66829C 25280J   26091.46506944  .00035929  00000+0  30107-2 0   917
2 66829  70.0000 276.9649 0002942 265.0000 286.9003 14.98317283    18
STARLINK-35881          
1 66830C 25280K   26091.36437500  .00066853  00000+0  56031-2 0   913
2 66830  70.0007 277.4453 0001483 270.8196 255.5153 14.98295990    13
STARLINK-35788          
1 66831C 25280L   26091.41576389  .00066689  00000+0  55888-2 0   915
2 66831  70.0003 277.0132 0002576 265.6619  87.8971 14.98297981    12
STARLINK-35768          
1 66832C 25280M   26091.42062500  .00057481  00000+0  48170-2 0   918
2 66832  70.0001 277.2010 0001792 262.2474 297.4412 14.98304902    10
STARLINK-35858          
1 66833C 25280N   26091.39562500  .00063700  00000+0  53365-2 0   913
2 66833  69.9999 277.1649 0002948 267.6663 247.1915 14.98311727    17
STARLINK-35840          
1 66834C 25280P   26091.36645833  .00066517  00000+0  55745-2 0   915
2 66834  70.0007 277.0868 0002941 267.1760 225.5223 14.98296366    12
STARLINK-35890          
1 66835C 25280Q   26091.38173611  .00073667  00000+0  61744-2 0   918
2 66835  69.9999 277.2480 0002589 264.2694 130.7442 14.98289540    10
STARLINK-35838          
1 66836C 25280R   26091.44354167  .00051506  00000+0  43158-2 0   910
2 66836  70.0000 276.9939 0002957 266.2719 192.0425 14.98310238    12
STARLINK-35729          
1 66837C 25280S   26091.47340278  .00038062  00000+0  31892-2 0   916
2 66837  70.0007 277.1942 0003126 265.5643 105.2840 14.98318574    12
